NORAD_CAT_ID,OBJECT_NAME,OBJECT_TYPE,EPOCH,MEAN_MOTION,ECCENTRICITY,INCLINATION,RA_OF_ASC_NODE,ARG_OF_PERICENTER,MEAN_ANOMALY,BSTAR,MEAN_MOTION_DOT,MEAN_MOTION_DDOT,TLE_LINE0,TLE_LINE1,TLE_LINE2,SEMIMAJOR_AXIS,PERIOD,APOGEE,PERIGEE,DECAYED
52877.0,STARLINK-4214,PAYLOAD,2023-08-15 10:18:00,15.08845472,0.0001255,53.2166,261.6446,87.2388,272.8747,9.6894e-05,1.255e-05,0.0,0 STARLINK-4214,1 52877U 22062AZ  23227.42917020  .00001255  00000-0  96894-4 0  9995,2 52877  53.2166 261.6446 0001255  87.2388 272.8747 15.08845472 65060,6917.864,95.437,540.597,538.86,0.0
52877.0,STARLINK-4214,PAYLOAD,2023-08-16 02:11:51,15.08839389,0.0001093,53.2161,258.6695,96.095,264.0167,7.4913e-05,9.05e-06,0.0,0 STARLINK-4214,1 52877U 22062AZ  23228.09157395  .00000905  00000-0  74913-4 0  9999,2 52877  53.2161 258.6695 0001093  96.0950 264.0167 15.08839389 65160,6917.882,95.438,540.503,538.991,0.0
52877.0,STARLINK-4214,PAYLOAD,2023-08-17 02:02:39,15.08747416,0.0001591,53.2161,254.2104,109.0059,251.1105,0.0014321,0.0002252,0.0,0 STARLINK-4214,1 52877U 22062AZ  23229.08518340  .00022520  00000-0  14321-2 0  9992,2 52877  53.2161 254.2104 0001591 109.0059 251.1105 15.08747416 65310,6918.163,95.443,541.129,538.928,0.0
52877.0,STARLINK-4214,PAYLOAD,2023-08-17 08:24:11,15.0881736,0.0001025,53.216,253.0209,102.6597,257.451,0.00049648,7.618e-05,0.0,0 STARLINK-4214,1 52877U 22062AZ  23229.35013794  .00007618  00000-0  49648-3 0  9997,2 52877  53.2160 253.0209 0001025 102.6597 257.4510 15.08817360 65359,6917.95,95.439,540.524,539.106,0.0
52877.0,STARLINK-4214,PAYLOAD,2023-08-17 11:34:58,15.08796215,0.0001282,53.2159,252.426,109.0109,251.1022,0.00085951,0.00013401,0.0,0 STARLINK-4214,1 52877U 22062AZ  23229.48262616  .00013401  00000-0  85951-3 0  9994,2 52877  53.2159 252.4260 0001282 109.0109 251.1022 15.08796215 65378,6918.014,95.44,540.766,538.992,0.0
52877.0,STARLINK-4214,PAYLOAD,2023-08-18 01:53:26,15.08838899,0.0001194,53.2155,249.7489,95.3056,264.8072,7.0339e-05,8.32e-06,0.0,0 STARLINK-4214,1 52877U 22062AZ  23230.07877563  .00000832  00000-0  70339-4 0  9993,2 52877  53.2155 249.7489 0001194  95.3056 264.8072 15.08838899 65467,6917.884,95.438,540.575,538.923,0.0
52877.0,STARLINK-4214,PAYLOAD,2023-08-19 06:30:22,15.08837683,0.0001373,53.2165,244.3969,101.5468,258.5678,3.1452e-05,2.13e-06,0.0,0 STARLINK-4214,1 52877U 22062AZ  23231.27109778  .00000213  00000-0  31452-4 0  9998,2 52877  53.2165 244.3969 0001373 101.5468 258.5678 15.08837683 65640,6917.887,95.438,540.702,538.803,0.0
52877.0,STARLINK-4214,PAYLOAD,2023-08-20 07:56:33,15.08838621,0.0001402,53.2165,239.6393,100.5696,259.5454,6.2124e-05,7.01e-06,0.0,0 STARLINK-4214,1 52877U 22062AZ  23232.33093874  .00000701  00000-0  62124-4 0  9997,2 52877  53.2165 239.6393 0001402 100.5696 259.5454 15.08838621 65807,6917.885,95.438,540.719,538.78,0.0
52877.0,STARLINK-4214,PAYLOAD,2023-08-22 01:16:34,15.08840831,0.0001285,53.2154,231.9066,92.1818,267.9321,6.4337e-05,7.36e-06,0.0,0 STARLINK-4214,1 52877U 22062AZ  23234.05318015  .00000736  00000-0  64337-4 0  9991,2 52877  53.2154 231.9066 0001285  92.1818 267.9321 15.08840831 66069,6917.878,95.438,540.632,538.854,0.0
52877.0,STARLINK-4214,PAYLOAD,2023-08-23 10:39:40,15.08839054,0.0001437,53.2161,225.6618,84.9698,275.1458,3.5694e-05,2.8e-06,0.0,0 STARLINK-4214,1 52877U 22062AZ  23235.44422274  .00000280  00000-0  35694-4 0  9996,2 52877  53.2161 225.6618 0001437  84.9698 275.1458 15.08839054 66274,6917.883,95.438,540.742,538.754,0.0
52877.0,STARLINK-4214,PAYLOAD,2023-08-24 08:55:04,15.08843465,0.0001454,53.216,221.4986,86.4631,273.6528,6.3118e-05,7.17e-06,0.0,0 STARLINK-4214,1 52877U 22062AZ  23236.37157877  .00000717  00000-0  63118-4 0  9990,2 52877  53.2160 221.4986 0001454  86.4631 273.6528 15.08843465 65921,6917.87,95.437,540.741,538.729,0.0
52877.0,STARLINK-4214,PAYLOAD,2023-08-25 02:24:19,15.08839912,0.0001408,53.2166,218.2264,92.0612,268.0542,6.5486e-05,7.54e-06,0.0,0 STARLINK-4214,1 52877U 22062AZ  23237.10022049  .00000754  00000-0  65486-4 0  9995,2 52877  53.2166 218.2264 0001408  92.0612 268.0542 15.08839912 66524,6917.881,95.438,540.72,538.772,0.0
52877.0,STARLINK-4214,PAYLOAD,2023-08-25 10:21:14,15.08844842,0.0001425,53.217,216.7392,92.4772,267.6383,9.8361e-05,1.278e-05,0.0,0 STARLINK-4214,1 52877U 22062AZ  23237.43141619  .00001278  00000-0  98361-4 0  9996,2 52877  53.2170 216.7392 0001425  92.4772 267.6383 15.08844842 66081,6917.866,95.437,540.716,538.745,0.0
52877.0,STARLINK-4214,PAYLOAD,2023-08-26 00:39:43,15.08834491,0.0001233,53.2163,214.0641,105.9775,254.1353,-2.2031e-05,-6.38e-06,0.0,0 STARLINK-4214,1 52877U 22062AZ  23238.02758637 -.00000638  00000-0 -22031-4 0  9998,2 52877  53.2163 214.0641 0001233 105.9775 254.1353 15.08834491 66662,6917.897,95.438,540.615,538.909,0.0
52877.0,STARLINK-4214,PAYLOAD,2023-08-26 05:25:52,15.08841325,0.0001371,53.216,213.1727,95.9766,264.1383,3.5996e-05,2.85e-06,0.0,0 STARLINK-4214,1 52877U 22062AZ  23238.22630125  .00000285  00000-0  35996-4 0  9991,2 52877  53.2160 213.1727 0001371  95.9766 264.1383 15.08841325 66696,6917.876,95.437,540.69,538.793,0.0
52877.0,STARLINK-4214,PAYLOAD,2023-08-27 02:05:53,15.08836984,0.0001337,53.216,209.3085,98.4673,261.6471,-2.1085e-05,-6.23e-06,0.0,0 STARLINK-4214,1 52877U 22062AZ  23239.08742762 -.00000623  00000-0 -21085-4 0  9999,2 52877  53.2160 209.3085 0001337  98.4673 261.6471 15.08836984 66827,6917.89,95.438,540.68,538.83,0.0
52877.0,STARLINK-4214,PAYLOAD,2023-08-27 06:52:03,15.08839153,0.0001348,53.2163,208.417,98.9125,261.202,-3.3517e-06,-3.41e-06,0.0,0 STARLINK-4214,1 52877U 22062AZ  23239.28614629 -.00000341  00000-0 -33517-5 0  9992,2 52877  53.2163 208.4170 0001348  98.9125 261.2020 15.08839153 66360,6917.883,95.438,540.681,538.815,0.0
52877.0,STARLINK-4214,PAYLOAD,2023-08-28 09:53:36,15.08841588,0.0001336,53.2161,203.3609,93.3706,266.7439,8.3635e-05,1.043e-05,0.0,0 STARLINK-4214,1 52877U 22062AZ  23240.41222542  .00001043  00000-0  83635-4 0  9991,2 52877  53.2161 203.3609 0001336  93.3706 266.7439 15.08841588 67023,6917.876,95.437,540.665,538.816,0.0
52877.0,STARLINK-4214,PAYLOAD,2023-08-29 01:47:28,15.08837554,0.0001415,53.217,200.3848,89.2099,270.9056,7.4695e-05,9.01e-06,0.0,0 STARLINK-4214,1 52877U 22062AZ  23241.07462979  .00000901  00000-0  74695-4 0  9992,2 52877  53.2170 200.3848 0001415  89.2099 270.9056 15.08837554 67123,6917.888,95.438,540.732,538.774,0.0
52877.0,STARLINK-4214,PAYLOAD,2023-08-29 09:44:23,15.08842575,0.0001444,53.217,198.8975,87.2093,272.9065,0.00011275,1.507e-05,0.0,0 STARLINK-4214,1 52877U 22062AZ  23241.40582614  .00001507  00000-0  11275-3 0  9995,2 52877  53.2170 198.8975 0001444  87.2093 272.9065 15.08842575 66680,6917.873,95.437,540.736,538.739,0.0
52877.0,STARLINK-4214,PAYLOAD,2023-08-30 04:49:01,15.08841017,0.0001418,53.2165,195.3308,95.563,264.5524,4.6352e-05,4.5e-06,0.0,0 STARLINK-4214,1 52877U 22062AZ  23242.20070967  .00000450  00000-0  46352-4 0  9998,2 52877  53.2165 195.3308 0001418  95.5630 264.5524 15.08841017 67291,6917.877,95.437,540.723,538.761,0.0
52877.0,STARLINK-4214,PAYLOAD,2023-08-30 14:21:20,15.08834657,0.000133,53.2171,193.5462,95.3384,264.776,-1.8886e-05,-5.88e-06,0.0,0 STARLINK-4214,1 52877U 22062AZ  23242.59815459 -.00000588  00000-0 -18886-4 0  9998,2 52877  53.2171 193.5462 0001330  95.3384 264.7760 15.08834657 67359,6917.897,95.438,540.682,538.842,0.0
52877.0,STARLINK-4214,PAYLOAD,2023-08-31 18:58:16,15.08833493,0.0001097,53.2172,188.1954,92.8778,267.2339,7.9608e-05,9.79e-06,0.0,0 STARLINK-4214,1 52877U 22062AZ  23243.79047326  .00000979  00000-0  79608-4 0  9992,2 52877  53.2172 188.1954 0001097  92.8778 267.2339 15.08833493 67532,6917.9,95.438,540.524,539.006,0.0
52877.0,STARLINK-4214,PAYLOAD,2023-09-01 06:05:58,15.08843739,0.0001381,53.2172,186.1138,89.0115,271.1035,3.4939e-05,2.68e-06,0.0,0 STARLINK-4214,1 52877U 22062AZ  23244.25415064  .00000268  00000-0  34939-4 0  9991,2 52877  53.2172 186.1138 0001381  89.0115 271.1035 15.08843739 67602,6917.869,95.437,540.689,538.779,0.0
52877.0,STARLINK-4214,PAYLOAD,2023-09-01 23:35:13,15.08826771,3.36e-05,53.2172,182.8449,300.1106,59.9852,0.00030241,4.527e-05,0.0,0 STARLINK-4214,1 52877U 22062AZ  23244.98278972  .00004527  00000-0  30241-3 0  9999,2 52877  53.2172 182.8449 0000336 300.1106  59.9852 15.08826771 67714,6917.921,95.438,540.018,539.553,0.0
52877.0,STARLINK-4214,PAYLOAD,2023-09-02 05:56:45,15.08847537,0.0001409,53.2162,181.6521,85.2752,274.8401,0.00016939,2.409e-05,0.0,0 STARLINK-4214,1 52877U 22062AZ  23245.24774316  .00002409  00000-0  16939-3 0  9997,2 52877  53.2162 181.6521 0001409  85.2752 274.8401 15.08847537 67756,6917.857,95.437,540.697,538.748,0.0
52877.0,STARLINK-4214,PAYLOAD,2023-09-02 20:15:14,15.0883681,0.0001948,53.216,178.9737,108.7378,251.3826,4.8567e-05,4.85e-06,0.0,0 STARLINK-4214,1 52877U 22062AZ  23245.84391356  .00000485  00000-0  48567-4 0  9997,2 52877  53.2160 178.9737 0001948 108.7378 251.3826 15.08836810 67354,6917.89,95.438,541.103,538.408,0.0
52877.0,STARLINK-4214,PAYLOAD,2023-09-03 02:36:46,15.08840403,0.0001201,53.2165,177.7881,90.3735,269.7394,8.7661e-05,1.108e-05,0.0,0 STARLINK-4214,1 52877U 22062AZ  23246.10887176  .00001108  00000-0  87661-4 0  9998,2 52877  53.2165 177.7881 0001201  90.3735 269.7394 15.08840403 67885,6917.879,95.438,540.575,538.913,0.0
52877.0,STARLINK-4214,PAYLOAD,2023-09-03 12:09:05,15.08841165,0.0001216,53.2168,176.0053,95.0143,265.0988,-2.7295e-05,-7.22e-06,0.0,0 STARLINK-4214,1 52877U 22062AZ  23246.50631426 -.00000722  00000-0 -27295-4 0  9997,2 52877  53.2168 176.0053 0001216  95.0143 265.0988 15.08841165 67459,6917.877,95.437,540.583,538.901,0.0
52877.0,STARLINK-4214,PAYLOAD,2023-09-04 02:27:34,15.08837907,0.0001221,53.2192,173.3318,96.4204,263.6927,-0.00018155,-3.176e-05,0.0,0 STARLINK-4214,1 52877U 22062AZ  23247.10248383 -.00003176  00000-0 -18155-3 0  9990,2 52877  53.2192 173.3318 0001221  96.4204 263.6927 15.08837907 68030,6917.887,95.438,540.596,538.907,0.0
